{"type": "FeatureCollection", "features": [ {"type": "Feature", "properties": {"norad_id": 67071, "name": "KZ-11 R/B", "group": "last-30-days", "lat": -6.485093507056831, "lon": 37.87875908107517, "alt_km": 178.45641563975096, "timestamp": "2025-12-22T23:36:19.413979+00:00", "meta": {"OBJECT_NAME": "KZ-11 R/B", "OBJECT_ID": "2025-296C", "EPOCH": "2025-12-22T14:19:47.548704", "MEAN_MOTION": 15.40866128, "ECCENTRICITY": 0.04601667, "INCLINATION": 41.3101, "RA_OF_ASC_NODE": 47.6253, "ARG_OF_PERICENTER": 22.6091, "MEAN_ANOMALY": 339.4322, "EPHEMERIS_TYPE": 0, "CLASSIFICATION_TYPE": "U", "NORAD_CAT_ID": 67071, "ELEMENT_SET_NO": 999, "REV_AT_EPOCH": 142, "BSTAR": 0.00047260137, "MEAN_MOTION_DOT": 0.08085331, "MEAN_MOTION_DDOT": 7.163122e-06}, "tle": {"line1": "1 67071U 25296C   25356.59707811  .08085331  71631-5  47260-3 0  9997", "line2": "2 67071  41.3101  47.6253 0460166  22.6091 339.4322 15.40866128  1427"}}, "geometry": {"type": "Point", "coordinates": [37.87875908107517, -6.485093507056831]}}, {"type": "Feature", "properties": {"norad_id": 67072, "name": "ELECTRON R/B", "group": "last-30-days", "lat": -15.109175602654538, "lon": 147.36370797287398, "alt_km": 306.572621477987, "timestamp": "2025-12-22T23:36:19.413989+00:00", "meta": {"OBJECT_NAME": "ELECTRON R/B", "OBJECT_ID": "2025-297A", "EPOCH": "2025-12-22T13:14:21.086016", "MEAN_MOTION": 16.09855083, "ECCENTRICITY": 0.01273077, "INCLINATION": 97.4567, "RA_OF_ASC_NODE": 144.8475, "ARG_OF_PERICENTER": 197.5366, "MEAN_ANOMALY": 162.1504, "EPHEMERIS_TYPE": 0, "CLASSIFICATION_TYPE": "U", "NORAD_CAT_ID": 67072, "ELEMENT_SET_NO": 999, "REV_AT_EPOCH": 134, "BSTAR": 0.0013451925, "MEAN_MOTION_DOT": 0.04510731, "MEAN_MOTION_DDOT": 2.157609e-06}, "tle": {"line1": "1 67072U 25297A   25356.55163294  .04510731  21576-5  13452-2 0  9997", "line2": "2 67072  97.4567 144.8475 0127307 197.5366 162.1504 16.09855083  1344"}}, "geometry": {"type": "Point", "coordinates": [147.36370797287398, -15.109175602654538]}}, {"type": "Feature", "properties": {"norad_id": 67073, "name": "RAISE-4", "group": "last-30-days", "lat": -33.26957081287039, "lon": 149.20555323959766, "alt_km": 545.2092990995297, "timestamp": "2025-12-22T23:36:19.413999+00:00", "meta": {"OBJECT_NAME": "RAISE-4", "OBJECT_ID": "2025-297B", "EPOCH": "2025-12-22T09:24:49.575744", "MEAN_MOTION": 15.07201816, "ECCENTRICITY": 0.00114656, "INCLINATION": 97.4855, "RA_OF_ASC_NODE": 143.6813, "ARG_OF_PERICENTER": 284.9049, "MEAN_ANOMALY": 75.0909, "EPHEMERIS_TYPE": 0, "CLASSIFICATION_TYPE": "U", "NORAD_CAT_ID": 67073, "ELEMENT_SET_NO": 999, "REV_AT_EPOCH": 124, "BSTAR": 0.00028979193, "MEAN_MOTION_DOT": 4.308e-05, "MEAN_MOTION_DDOT": 0}, "tle": {"line1": "1 67073U 25297B   25356.39224046  .00004308  00000+0  28979-3 0  9991", "line2": "2 67073  97.4855 143.6813 0011465 284.9049  75.0909 15.07201816  1240"}}, "geometry": {"type": "Point", "coordinates": [149.20555323959766, -33.26957081287039]}}, {"type": "Feature", "properties": {"norad_id": 67074, "name": "ELECTRON KICK STAGE R/B", "group": "last-30-days", "lat": 64.78706399427095, "lon": 128.7217351314326, "alt_km": 514.5637254525191, "timestamp": "2025-12-22T23:36:19.414009+00:00", "meta": {"OBJECT_NAME": "ELECTRON KICK STAGE R/B", "OBJECT_ID": "2025-297C", "EPOCH": "2025-12-22T09:26:28.235040", "MEAN_MOTION": 15.57876524, "ECCENTRICITY": 0.01961112, "INCLINATION": 97.4818, "RA_OF_ASC_NODE": 144.3094, "ARG_OF_PERICENTER": 234.4375, "MEAN_ANOMALY": 123.8463, "EPHEMERIS_TYPE": 0, "CLASSIFICATION_TYPE": "U", "NORAD_CAT_ID": 67074, "ELEMENT_SET_NO": 999, "REV_AT_EPOCH": 128, "BSTAR": 0.0017579987, "MEAN_MOTION_DOT": 0.00331794, "MEAN_MOTION_DDOT": 3.1442271e-05}, "tle": {"line1": "1 67074U 25297C   25356.39338235  .00331794  31442-4  17580-2 0  9994", "line2": "2 67074  97.4818 144.3094 0196111 234.4375 123.8463 15.57876524  1283"}}, "geometry": {"type": "Point", "coordinates": [128.7217351314326, 64.78706399427095]}}, {"type": "Feature", "properties": {"norad_id": 67075, "name": "STARLINK-36230", "group": "last-30-days", "lat": -32.249295533289455, "lon": -152.35992550943612, "alt_km": 309.9188616074016, "timestamp": "2025-12-22T23:36:19.414034+00:00", "meta": {"OBJECT_NAME": "STARLINK-36230", "OBJECT_ID": "2025-298A", "EPOCH": "2025-12-22T14:00:01.999872", "MEAN_MOTION": 15.88526042, "ECCENTRICITY": 0.00044873, "INCLINATION": 69.9974, "RA_OF_ASC_NODE": 222.0841, "ARG_OF_PERICENTER": 269.9413, "MEAN_ANOMALY": 287.4863, "EPHEMERIS_TYPE": 0, "CLASSIFICATION_TYPE": "U", "NORAD_CAT_ID": 67075, "ELEMENT_SET_NO": 999, "REV_AT_EPOCH": 256, "BSTAR": 0.00064651343, "MEAN_MOTION_DOT": 0.00183892, "MEAN_MOTION_DDOT": 0}, "tle": {"line1": "1 67075U 25298A   25356.58335648  .00183892  00000+0  64651-3 0  9999", "line2": "2 67075  69.9974 222.0841 0004487 269.9413 287.4863 15.88526042  2569"}}, "geometry": {"type": "Point", "coordinates": [-152.35992550943612, -32.249295533289455]}}, {"type": "Feature", "properties": {"norad_id": 67076, "name": "STARLINK-36240", "group": "last-30-days", "lat": -30.49517512967376, "lon": -151.46300314991177, "alt_km": 309.9261117760607, "timestamp": "2025-12-22T23:36:19.414046+00:00", "meta": {"OBJECT_NAME": "STARLINK-36240", "OBJECT_ID": "2025-298B", "EPOCH": "2025-12-22T14:00:01.999872", "MEAN_MOTION": 15.88580237, "ECCENTRICITY": 0.00045373, "INCLINATION": 69.9974, "RA_OF_ASC_NODE": 222.0819, "ARG_OF_PERICENTER": 265.6221, "MEAN_ANOMALY": 293.6411, "EPHEMERIS_TYPE": 0, "CLASSIFICATION_TYPE": "U", "NORAD_CAT_ID": 67076, "ELEMENT_SET_NO": 999, "REV_AT_EPOCH": 256, "BSTAR": 0.00064381259, "MEAN_MOTION_DOT": 0.00183613, "MEAN_MOTION_DDOT": 0}, "tle": {"line1": "1 67076U 25298B   25356.58335648  .00183613  00000+0  64381-3 0  9991", "line2": "2 67076  69.9974 222.0819 0004537 265.6221 293.6411 15.88580237  2565"}}, "geometry": {"type": "Point", "coordinates": [-151.46300314991177, -30.49517512967376]}}, {"type": "Feature", "properties": {"norad_id": 67077, "name": "STARLINK-36243", "group": "last-30-days", "lat": -28.391051315053957, "lon": -150.43243500648092, "alt_km": 309.6221805820669, "timestamp": "2025-12-22T23:36:19.414056+00:00", "meta": {"OBJECT_NAME": "STARLINK-36243", "OBJECT_ID": "2025-298C", "EPOCH": "2025-12-22T14:00:01.999872", "MEAN_MOTION": 15.88642171, "ECCENTRICITY": 0.00045723, "INCLINATION": 69.9971, "RA_OF_ASC_NODE": 222.0797, "ARG_OF_PERICENTER": 267.9429, "MEAN_ANOMALY": 293.5257, "EPHEMERIS_TYPE": 0, "CLASSIFICATION_TYPE": "U", "NORAD_CAT_ID": 67077, "ELEMENT_SET_NO": 999, "REV_AT_EPOCH": 256, "BSTAR": 0.0006149438, "MEAN_MOTION_DOT": 0.00175756, "MEAN_MOTION_DDOT": 0}, "tle": {"line1": "1 67077U 25298C   25356.58335648  .00175756  00000+0  61494-3 0  9993", "line2": "2 67077  69.9971 222.0797 0004572 267.9429 293.5257 15.88642171  2565"}}, "geometry": {"type": "Point", "coordinates": [-150.43243500648092, -28.391051315053957]}}, {"type": "Feature", "properties": {"norad_id": 67078, "name": "STARLINK-36236", "group": "last-30-days", "lat": -26.773821565680144, "lon": -149.67089062281715, "alt_km": 309.3635283557469, "timestamp": "2025-12-22T23:36:19.414068+00:00", "meta": {"OBJECT_NAME": "STARLINK-36236", "OBJECT_ID": "2025-298D", "EPOCH": "2025-12-22T14:00:01.999872", "MEAN_MOTION": 15.8868621, "ECCENTRICITY": 0.00046938, "INCLINATION": 69.9973, "RA_OF_ASC_NODE": 222.0772, "ARG_OF_PERICENTER": 269.1154, "MEAN_ANOMALY": 294.0392, "EPHEMERIS_TYPE": 0, "CLASSIFICATION_TYPE": "U", "NORAD_CAT_ID": 67078, "ELEMENT_SET_NO": 999, "REV_AT_EPOCH": 256, "BSTAR": 0.00063846494, "MEAN_MOTION_DOT": 0.00183045, "MEAN_MOTION_DDOT": 0}, "tle": {"line1": "1 67078U 25298D   25356.58335648  .00183045  00000+0  63846-3 0  9997", "line2": "2 67078  69.9973 222.0772 0004693 269.1154 294.0392 15.88686210  2562"}}, "geometry": {"type": "Point", "coordinates": [-149.67089062281715, -26.773821565680144]}}, {"type": "Feature", "properties": {"norad_id": 67079, "name": "STARLINK-36159", "group": "last-30-days", "lat": -24.640819180933903, "lon": -148.70095096959682, "alt_km": 309.2068238103666, "timestamp": "2025-12-22T23:36:19.414078+00:00", "meta": {"OBJECT_NAME": "STARLINK-36159", "OBJECT_ID": "2025-298E", "EPOCH": "2025-12-22T14:00:01.999872", "MEAN_MOTION": 15.88741311, "ECCENTRICITY": 0.00045947, "INCLINATION": 69.9975, "RA_OF_ASC_NODE": 222.0747, "ARG_OF_PERICENTER": 268.9289, "MEAN_ANOMALY": 296.4549, "EPHEMERIS_TYPE": 0, "CLASSIFICATION_TYPE": "U", "NORAD_CAT_ID": 67079, "ELEMENT_SET_NO": 999, "REV_AT_EPOCH": 256, "BSTAR": 0.00063302796, "MEAN_MOTION_DOT": 0.00181954, "MEAN_MOTION_DDOT": 0}, "tle": {"line1": "1 67079U 25298E   25356.58335648  .00181954  00000+0  63303-3 0  9993", "line2": "2 67079  69.9975 222.0747 0004594 268.9289 296.4549 15.88741311  2567"}}, "geometry": {"type": "Point", "coordinates": [-148.70095096959682, -24.640819180933903]}}, {"type": "Feature", "properties": {"norad_id": 67080, "name": "STARLINK-36158", "group": "last-30-days", "lat": -22.623395361323205, "lon": -147.81647927499478, "alt_km": 308.99994396876536, "timestamp": "2025-12-22T23:36:19.414087+00:00", "meta": {"OBJECT_NAME": "STARLINK-36158", "OBJECT_ID": "2025-298F", "EPOCH": "2025-12-22T14:00:01.999872", "MEAN_MOTION": 15.88736956, "ECCENTRICITY": 0.00042719, "INCLINATION": 69.9973, "RA_OF_ASC_NODE": 222.0722, "ARG_OF_PERICENTER": 269.9328, "MEAN_ANOMALY": 297.5836, "EPHEMERIS_TYPE": 0, "CLASSIFICATION_TYPE": "U", "NORAD_CAT_ID": 67080, "ELEMENT_SET_NO": 999, "REV_AT_EPOCH": 250, "BSTAR": 0.00095807391, "MEAN_MOTION_DOT": 0.00278416, "MEAN_MOTION_DDOT": 0}, "tle": {"line1": "1 67080U 25298F   25356.58335648  .00278416  00000+0  95807-3 0  9999", "line2": "2 67080  69.9973 222.0722 0004271 269.9328 297.5836 15.88736956  2501"}}, "geometry": {"type": "Point", "coordinates": [-147.81647927499478, -22.623395361323205]}}]}